[
  {
    "OBJECT_NAME": "STARLINK-3928",
    "OBJECT_ID": "22052J",
    "EPOCH": "2025-11-11T01:58:39.015264",
    "MEAN_MOTION": 15.08842703,
    "ECCENTRICITY": 0.0001266,
    "INCLINATION": 53.2171,
    "RA_OF_ASC_NODE": 91.5667,
    "ARG_OF_PERICENTER": 88.1298,
    "MEAN_ANOMALY": 271.9839,
    "EPHEMERIS_TYPE": 0,
    "CLASSIFICATION_TYPE": "U",
    "NORAD_CAT_ID": 52606,
    "ELEMENT_SET_NO": 999,
    "REV_AT_EPOCH": 19295,
    "BSTAR": 6.570700000000001e-05,
    "MEAN_MOTION_DOT": 7.58e-06,
    "MEAN_MOTION_DDOT": 0.0,
    "TLE_LINE1": "1 52606U 22052J   25315.08239601  .00000758  00000+0  65707-4 0  9993",
    "TLE_LINE2": "2 52606  53.2171  91.5667 0001266  88.1298 271.9839 15.08842703192958",
    "COMMENT": "Grouped by shell and plane from TLE"
  },
  {
    "OBJECT_NAME": "STARLINK-3947",
    "OBJECT_ID": "22052K",
    "EPOCH": "2025-11-11T02:44:24.714816",
    "MEAN_MOTION": 15.08844786,
    "ECCENTRICITY": 0.0001122,
    "INCLINATION": 53.2172,
    "RA_OF_ASC_NODE": 96.4365,
    "ARG_OF_PERICENTER": 89.4728,
    "MEAN_ANOMALY": 270.6393,
    "EPHEMERIS_TYPE": 0,
    "CLASSIFICATION_TYPE": "U",
    "NORAD_CAT_ID": 52607,
    "ELEMENT_SET_NO": 999,
    "REV_AT_EPOCH": 19287,
    "BSTAR": 6.7189e-05,
    "MEAN_MOTION_DOT": 7.82e-06,
    "MEAN_MOTION_DDOT": 0.0,
    "TLE_LINE1": "1 52607U 22052K   25315.11417494  .00000782  00000+0  67189-4 0  9999",
    "TLE_LINE2": "2 52607  53.2172  96.4365 0001122  89.4728 270.6393 15.08844786192877",
    "COMMENT": "Grouped by shell and plane from TLE"
  },
  {
    "OBJECT_NAME": "STARLINK-3979",
    "OBJECT_ID": "22052L",
    "EPOCH": "2025-11-11T01:48:03.184704",
    "MEAN_MOTION": 15.0884354,
    "ECCENTRICITY": 0.0001365,
    "INCLINATION": 53.2153,
    "RA_OF_ASC_NODE": 91.6005,
    "ARG_OF_PERICENTER": 85.852,
    "MEAN_ANOMALY": 274.2628,
    "EPHEMERIS_TYPE": 0,
    "CLASSIFICATION_TYPE": "U",
    "NORAD_CAT_ID": 52608,
    "ELEMENT_SET_NO": 999,
    "REV_AT_EPOCH": 19295,
    "BSTAR": 0.0,
    "MEAN_MOTION_DOT": -4.75e-06,
    "MEAN_MOTION_DDOT": 0.0,
    "TLE_LINE1": "1 52608U 22052L   25315.07503686 -.00000475  00000+0 -11744-4 0  9991",
    "TLE_LINE2": "2 52608  53.2153  91.6005 0001365  85.8520 274.2628 15.08843540192951",
    "COMMENT": "Grouped by shell and plane from TLE"
  },
  {
    "OBJECT_NAME": "STARLINK-3997",
    "OBJECT_ID": "22052M",
    "EPOCH": "2025-11-10T15:59:49.649568",
    "MEAN_MOTION": 15.08845508,
    "ECCENTRICITY": 0.0001384,
    "INCLINATION": 53.2138,
    "RA_OF_ASC_NODE": 93.387,
    "ARG_OF_PERICENTER": 85.8571,
    "MEAN_ANOMALY": 274.2579,
    "EPHEMERIS_TYPE": 0,
    "CLASSIFICATION_TYPE": "U",
    "NORAD_CAT_ID": 52609,
    "ELEMENT_SET_NO": 999,
    "REV_AT_EPOCH": 19289,
    "BSTAR": 1.6316e-05,
    "MEAN_MOTION_DOT": -2.8e-07,
    "MEAN_MOTION_DDOT": 0.0,
    "TLE_LINE1": "1 52609U 22052M   25314.66654687 -.00000028  00000+0  16316-4 0  9997",
    "TLE_LINE2": "2 52609  53.2138  93.3870 0001384  85.8571 274.2579 15.08845508192895",
    "COMMENT": "Grouped by shell and plane from TLE"
  },
  {
    "OBJECT_NAME": "STARLINK-3998",
    "OBJECT_ID": "22052N",
    "EPOCH": "2025-11-11T02:48:19.795392",
    "MEAN_MOTION": 15.08843286,
    "ECCENTRICITY": 0.000126,
    "INCLINATION": 53.2156,
    "RA_OF_ASC_NODE": 96.4143,
    "ARG_OF_PERICENTER": 83.7868,
    "MEAN_ANOMALY": 276.3268,
    "EPHEMERIS_TYPE": 0,
    "CLASSIFICATION_TYPE": "U",
    "NORAD_CAT_ID": 52610,
    "ELEMENT_SET_NO": 999,
    "REV_AT_EPOCH": 19288,
    "BSTAR": 5.516e-05,
    "MEAN_MOTION_DOT": 5.9e-06,
    "MEAN_MOTION_DDOT": 0.0,
    "TLE_LINE1": "1 52610U 22052N   25315.11689578  .00000590  00000+0  55160-4 0  9990",
    "TLE_LINE2": "2 52610  53.2156  96.4143 0001260  83.7868 276.3268 15.08843286192881",
    "COMMENT": "Grouped by shell and plane from TLE"
  },
  {
    "OBJECT_NAME": "STARLINK-3980",
    "OBJECT_ID": "22052P",
    "EPOCH": "2025-11-11T05:48:30.535776",
    "MEAN_MOTION": 15.08841878,
    "ECCENTRICITY": 0.0001237,
    "INCLINATION": 53.2165,
    "RA_OF_ASC_NODE": 95.8518,
    "ARG_OF_PERICENTER": 87.1924,
    "MEAN_ANOMALY": 272.921,
    "EPHEMERIS_TYPE": 0,
    "CLASSIFICATION_TYPE": "U",
    "NORAD_CAT_ID": 52611,
    "ELEMENT_SET_NO": 999,
    "REV_AT_EPOCH": 19290,
    "BSTAR": 0.00010263,
    "MEAN_MOTION_DOT": 1.346e-05,
    "MEAN_MOTION_DDOT": 0.0,
    "TLE_LINE1": "1 52611U 22052P   25315.24202009  .00001346  00000+0  10263-3 0  9999",
    "TLE_LINE2": "2 52611  53.2165  95.8518 0001237  87.1924 272.9210 15.08841878192903",
    "COMMENT": "Grouped by shell and plane from TLE"
  },
  {
    "OBJECT_NAME": "STARLINK-4002",
    "OBJECT_ID": "22052Q",
    "EPOCH": "2025-11-10T09:48:54.197568",
    "MEAN_MOTION": 15.08838223,
    "ECCENTRICITY": 0.0001426,
    "INCLINATION": 53.2167,
    "RA_OF_ASC_NODE": 94.5906,
    "ARG_OF_PERICENTER": 88.8245,
    "MEAN_ANOMALY": 271.2911,
    "EPHEMERIS_TYPE": 0,
    "CLASSIFICATION_TYPE": "U",
    "NORAD_CAT_ID": 52612,
    "ELEMENT_SET_NO": 999,
    "REV_AT_EPOCH": 19285,
    "BSTAR": 4.2631000000000006e-05,
    "MEAN_MOTION_DOT": 3.91e-06,
    "MEAN_MOTION_DDOT": 0.0,
    "TLE_LINE1": "1 52612U 22052Q   25314.40896062  .00000391  00000+0  42631-4 0  9999",
    "TLE_LINE2": "2 52612  53.2167  94.5906 0001426  88.8245 271.2911 15.08838223192851",
    "COMMENT": "Grouped by shell and plane from TLE"
  },
  {
    "OBJECT_NAME": "STARLINK-4011",
    "OBJECT_ID": "22052T",
    "EPOCH": "2025-11-10T10:38:34.893024",
    "MEAN_MOTION": 15.08837673,
    "ECCENTRICITY": 0.0001374,
    "INCLINATION": 53.2165,
    "RA_OF_ASC_NODE": 99.436,
    "ARG_OF_PERICENTER": 91.2,
    "MEAN_ANOMALY": 268.9149,
    "EPHEMERIS_TYPE": 0,
    "CLASSIFICATION_TYPE": "U",
    "NORAD_CAT_ID": 52615,
    "ELEMENT_SET_NO": 999,
    "REV_AT_EPOCH": 19277,
    "BSTAR": 1.9773e-05,
    "MEAN_MOTION_DOT": 2.7e-07,
    "MEAN_MOTION_DDOT": 0.0,
    "TLE_LINE1": "1 52615U 22052T   25314.44345941  .00000027  00000+0  19773-4 0  9998",
    "TLE_LINE2": "2 52615  53.2165  99.4360 0001374  91.2000 268.9149 15.08837673192774",
    "COMMENT": "Grouped by shell and plane from TLE"
  },
  {
    "OBJECT_NAME": "STARLINK-3975",
    "OBJECT_ID": "22052Y",
    "EPOCH": "2025-11-11T02:27:06.616224",
    "MEAN_MOTION": 15.08896718,
    "ECCENTRICITY": 0.000167,
    "INCLINATION": 53.22,
    "RA_OF_ASC_NODE": 96.4788,
    "ARG_OF_PERICENTER": 110.8926,
    "MEAN_ANOMALY": 249.2246,
    "EPHEMERIS_TYPE": 0,
    "CLASSIFICATION_TYPE": "U",
    "NORAD_CAT_ID": 52620,
    "ELEMENT_SET_NO": 999,
    "REV_AT_EPOCH": 19287,
    "BSTAR": 0.0,
    "MEAN_MOTION_DOT": -0.00018671,
    "MEAN_MOTION_DDOT": 0.0,
    "TLE_LINE1": "1 52620U 22052Y   25315.10215991 -.00018671  00000+0 -11562-2 0  9991",
    "TLE_LINE2": "2 52620  53.2200  96.4788 0001670 110.8926 249.2246 15.08896718192871",
    "COMMENT": "Grouped by shell and plane from TLE"
  },
  {
    "OBJECT_NAME": "STARLINK-4008",
    "OBJECT_ID": "22052AA",
    "EPOCH": "2025-11-10T16:01:51.731904",
    "MEAN_MOTION": 15.08823311,
    "ECCENTRICITY": 0.0001294,
    "INCLINATION": 53.2203,
    "RA_OF_ASC_NODE": 98.4292,
    "ARG_OF_PERICENTER": 86.3929,
    "MEAN_ANOMALY": 273.7211,
    "EPHEMERIS_TYPE": 0,
    "CLASSIFICATION_TYPE": "U",
    "NORAD_CAT_ID": 52622,
    "ELEMENT_SET_NO": 999,
    "REV_AT_EPOCH": 19281,
    "BSTAR": 0.0,
    "MEAN_MOTION_DOT": -2.152e-05,
    "MEAN_MOTION_DDOT": 0.0,
    "TLE_LINE1": "1 52622U 22052AA  25314.66795986 -.00002152  00000+0 -11724-3 0  9998",
    "TLE_LINE2": "2 52622  53.2203  98.4292 0001294  86.3929 273.7211 15.08823311192817",
    "COMMENT": "Grouped by shell and plane from TLE"
  },
  {
    "OBJECT_NAME": "STARLINK-4001",
    "OBJECT_ID": "22052AG",
    "EPOCH": "2025-11-11T03:04:10.933248",
    "MEAN_MOTION": 15.08866526,
    "ECCENTRICITY": 6.99e-05,
    "INCLINATION": 53.2194,
    "RA_OF_ASC_NODE": 96.3639,
    "ARG_OF_PERICENTER": 246.4939,
    "MEAN_ANOMALY": 113.598,
    "EPHEMERIS_TYPE": 0,
    "CLASSIFICATION_TYPE": "U",
    "NORAD_CAT_ID": 52628,
    "ELEMENT_SET_NO": 999,
    "REV_AT_EPOCH": 19288,
    "BSTAR": 0.00023438000000000002,
    "MEAN_MOTION_DOT": 3.447e-05,
    "MEAN_MOTION_DDOT": 0.0,
    "TLE_LINE1": "1 52628U 22052AG  25315.12790432  .00003447  00000+0  23438-3 0  9998",
    "TLE_LINE2": "2 52628  53.2194  96.3639 0000699 246.4939 113.5980 15.08866526192888",
    "COMMENT": "Grouped by shell and plane from TLE"
  },
  {
    "OBJECT_NAME": "STARLINK-4718",
    "OBJECT_ID": "22111A",
    "EPOCH": "2025-11-11T02:21:49.331232",
    "MEAN_MOTION": 15.0884149,
    "ECCENTRICITY": 0.0001472,
    "INCLINATION": 53.2179,
    "RA_OF_ASC_NODE": 96.4168,
    "ARG_OF_PERICENTER": 90.1842,
    "MEAN_ANOMALY": 269.9319,
    "EPHEMERIS_TYPE": 0,
    "CLASSIFICATION_TYPE": "U",
    "NORAD_CAT_ID": 53773,
    "ELEMENT_SET_NO": 999,
    "REV_AT_EPOCH": 17594,
    "BSTAR": 6.3228e-05,
    "MEAN_MOTION_DOT": 7.18e-06,
    "MEAN_MOTION_DDOT": 0.0,
    "TLE_LINE1": "1 53773U 22111A   25315.09848763  .00000718  00000+0  63228-4 0  9993",
    "TLE_LINE2": "2 53773  53.2179  96.4168 0001472  90.1842 269.9319 15.08841490175941",
    "COMMENT": "Grouped by shell and plane from TLE"
  },
  {
    "OBJECT_NAME": "STARLINK-4719",
    "OBJECT_ID": "22111B",
    "EPOCH": "2025-11-11T02:16:31.828512",
    "MEAN_MOTION": 15.08822116,
    "ECCENTRICITY": 0.0002077,
    "INCLINATION": 53.2164,
    "RA_OF_ASC_NODE": 96.3921,
    "ARG_OF_PERICENTER": 88.2822,
    "MEAN_ANOMALY": 271.8408,
    "EPHEMERIS_TYPE": 0,
    "CLASSIFICATION_TYPE": "U",
    "NORAD_CAT_ID": 53774,
    "ELEMENT_SET_NO": 999,
    "REV_AT_EPOCH": 17580,
    "BSTAR": 0.0,
    "MEAN_MOTION_DOT": -2.446e-05,
    "MEAN_MOTION_DDOT": 0.0,
    "TLE_LINE1": "1 53774U 22111B   25315.09481283 -.00002446  00000+0 -13568-3 0  9997",
    "TLE_LINE2": "2 53774  53.2164  96.3921 0002077  88.2822 271.8408 15.08822116175800",
    "COMMENT": "Grouped by shell and plane from TLE"
  }
]